{"fetched_at":"2026-07-20T18:28:46.361Z","source":"https://celestrak.org/NORAD/elements/gp.php?GROUP=globalstar&FORMAT=JSON","constellation":"globalstar","records":[{"OBJECT_NAME":"GLOBALSTAR M069","OBJECT_ID":"2007-020C","EPOCH":"2026-07-20T07:14:28.989888","CLASSIFICATION_TYPE":"U","MEAN_MOTION":12.23472403,"ECCENTRICITY":0.00015221,"INCLINATION":52.0014,"RA_OF_ASC_NODE":158.3977,"ARG_OF_PERICENTER":221.2256,"MEAN_ANOMALY":303.6484,"EPHEMERIS_TYPE":0,"NORAD_CAT_ID":31573,"ELEMENT_SET_NO":999,"REV_AT_EPOCH":88285,"BSTAR":0.00036131564,"MEAN_MOTION_DOT":-5.3e-7,"MEAN_MOTION_DDOT":0},{"OBJECT_NAME":"GLOBALSTAR M072","OBJECT_ID":"2007-020D","EPOCH":"2026-07-20T05:00:56.399040","CLASSIFICATION_TYPE":"U","MEAN_MOTION":11.91658745,"ECCENTRICITY":0.00016499,"INCLINATION":51.9951,"RA_OF_ASC_NODE":12.3323,"ARG_OF_PERICENTER":44.755,"MEAN_ANOMALY":126.212,"EPHEMERIS_TYPE":0,"NORAD_CAT_ID":31574,"ELEMENT_SET_NO":999,"REV_AT_EPOCH":87891,"BSTAR":-0.000095288145,"MEAN_MOTION_DOT":-9.1e-7,"MEAN_MOTION_DDOT":0},{"OBJECT_NAME":"GLOBALSTAR M066","OBJECT_ID":"2007-048C","EPOCH":"2026-07-19T18:09:32.116608","CLASSIFICATION_TYPE":"U","MEAN_MOTION":12.3039002,"ECCENTRICITY":0.00055397,"INCLINATION":51.9612,"RA_OF_ASC_NODE":324.4163,"ARG_OF_PERICENTER":110.8827,"MEAN_ANOMALY":54.0199,"EPHEMERIS_TYPE":0,"NORAD_CAT_ID":32265,"ELEMENT_SET_NO":999,"REV_AT_EPOCH":86423,"BSTAR":0.00046950141,"MEAN_MOTION_DOT":-3.9e-7,"MEAN_MOTION_DDOT":0},{"OBJECT_NAME":"GLOBALSTAR M079","OBJECT_ID":"2010-054A","EPOCH":"2026-07-20T04:19:50.214720","CLASSIFICATION_TYPE":"U","MEAN_MOTION":12.62266428,"ECCENTRICITY":0.0001124,"INCLINATION":52.0057,"RA_OF_ASC_NODE":8.2335,"ARG_OF_PERICENTER":85.7939,"MEAN_ANOMALY":86.4029,"EPHEMERIS_TYPE":0,"NORAD_CAT_ID":37188,"ELEMENT_SET_NO":999,"REV_AT_EPOCH":72671,"BSTAR":-0.000012521544,"MEAN_MOTION_DOT":-0.00000106,"MEAN_MOTION_DDOT":0},{"OBJECT_NAME":"GLOBALSTAR M074","OBJECT_ID":"2010-054B","EPOCH":"2026-07-19T21:19:16.331808","CLASSIFICATION_TYPE":"U","MEAN_MOTION":12.62262061,"ECCENTRICITY":0.00008549,"INCLINATION":52.0035,"RA_OF_ASC_NODE":8.383,"ARG_OF_PERICENTER":99.8307,"MEAN_ANOMALY":64.4636,"EPHEMERIS_TYPE":0,"NORAD_CAT_ID":37189,"ELEMENT_SET_NO":999,"REV_AT_EPOCH":72728,"BSTAR":-0.000011119237,"MEAN_MOTION_DOT":-0.00000106,"MEAN_MOTION_DDOT":0},{"OBJECT_NAME":"GLOBALSTAR M076","OBJECT_ID":"2010-054C","EPOCH":"2026-07-20T05:35:38.297760","CLASSIFICATION_TYPE":"U","MEAN_MOTION":12.62262546,"ECCENTRICITY":0.0001091,"INCLINATION":52.005,"RA_OF_ASC_NODE":7.5399,"ARG_OF_PERICENTER":98.8277,"MEAN_ANOMALY":72.5004,"EPHEMERIS_TYPE":0,"NORAD_CAT_ID":37190,"ELEMENT_SET_NO":999,"REV_AT_EPOCH":72704,"BSTAR":0.000054677198,"MEAN_MOTION_DOT":-9.4e-7,"MEAN_MOTION_DDOT":0},{"OBJECT_NAME":"GLOBALSTAR M077","OBJECT_ID":"2010-054D","EPOCH":"2026-07-20T00:09:29.668896","CLASSIFICATION_TYPE":"U","MEAN_MOTION":11.675472,"ECCENTRICITY":0.00021814,"INCLINATION":51.9961,"RA_OF_ASC_NODE":95.995,"ARG_OF_PERICENTER":233.9275,"MEAN_ANOMALY":225.5768,"EPHEMERIS_TYPE":0,"NORAD_CAT_ID":37191,"ELEMENT_SET_NO":999,"REV_AT_EPOCH":72497,"BSTAR":-0.0003716211,"MEAN_MOTION_DOT":-9.8e-7,"MEAN_MOTION_DDOT":0},{"OBJECT_NAME":"GLOBALSTAR M075","OBJECT_ID":"2010-054E","EPOCH":"2026-07-20T00:05:13.892928","CLASSIFICATION_TYPE":"U","MEAN_MOTION":12.62267915,"ECCENTRICITY":0.00007869,"INCLINATION":51.9955,"RA_OF_ASC_NODE":50.2739,"ARG_OF_PERICENTER":71.7784,"MEAN_ANOMALY":77.0132,"EPHEMERIS_TYPE":0,"NORAD_CAT_ID":37192,"ELEMENT_SET_NO":999,"REV_AT_EPOCH":72608,"BSTAR":0.000007665834,"MEAN_MOTION_DOT":-0.00000102,"MEAN_MOTION_DDOT":0},{"OBJECT_NAME":"GLOBALSTAR M073","OBJECT_ID":"2010-054F","EPOCH":"2026-07-20T06:59:44.973600","CLASSIFICATION_TYPE":"U","MEAN_MOTION":12.62266925,"ECCENTRICITY":0.00009985,"INCLINATION":52.0081,"RA_OF_ASC_NODE":323.5244,"ARG_OF_PERICENTER":104.2906,"MEAN_ANOMALY":271.5163,"EPHEMERIS_TYPE":0,"NORAD_CAT_ID":37193,"ELEMENT_SET_NO":999,"REV_AT_EPOCH":72811,"BSTAR":0.000032574815,"MEAN_MOTION_DOT":-9.8e-7,"MEAN_MOTION_DDOT":0},{"OBJECT_NAME":"GLOBALSTAR M083","OBJECT_ID":"2011-033A","EPOCH":"2026-07-20T05:30:17.900640","CLASSIFICATION_TYPE":"U","MEAN_MOTION":12.62264366,"ECCENTRICITY":0.00006861,"INCLINATION":51.9855,"RA_OF_ASC_NODE":271.8981,"ARG_OF_PERICENTER":111.4539,"MEAN_ANOMALY":283.1886,"EPHEMERIS_TYPE":0,"NORAD_CAT_ID":37739,"ELEMENT_SET_NO":999,"REV_AT_EPOCH":69712,"BSTAR":0.000076340963,"MEAN_MOTION_DOT":-9e-7,"MEAN_MOTION_DDOT":0},{"OBJECT_NAME":"GLOBALSTAR M088","OBJECT_ID":"2011-033B","EPOCH":"2026-07-20T07:19:48.314784","CLASSIFICATION_TYPE":"U","MEAN_MOTION":12.62269494,"ECCENTRICITY":0.00001317,"INCLINATION":52.0191,"RA_OF_ASC_NODE":178.1717,"ARG_OF_PERICENTER":38.5229,"MEAN_ANOMALY":100.6158,"EPHEMERIS_TYPE":0,"NORAD_CAT_ID":37740,"ELEMENT_SET_NO":999,"REV_AT_EPOCH":69267,"BSTAR":0.000030622093,"MEAN_MOTION_DOT":-9.8e-7,"MEAN_MOTION_DDOT":0},{"OBJECT_NAME":"GLOBALSTAR M091","OBJECT_ID":"2011-033C","EPOCH":"2026-07-20T05:52:35.956704","CLASSIFICATION_TYPE":"U","MEAN_MOTION":12.62264293,"ECCENTRICITY":0.00005466,"INCLINATION":51.9988,"RA_OF_ASC_NODE":141.2728,"ARG_OF_PERICENTER":32.9059,"MEAN_ANOMALY":131.4356,"EPHEMERIS_TYPE":0,"NORAD_CAT_ID":37741,"ELEMENT_SET_NO":999,"REV_AT_EPOCH":69345,"BSTAR":0.00010247719,"MEAN_MOTION_DOT":-8.5e-7,"MEAN_MOTION_DDOT":0},{"OBJECT_NAME":"GLOBALSTAR M085","OBJECT_ID":"2011-033D","EPOCH":"2026-07-20T01:37:28.695072","CLASSIFICATION_TYPE":"U","MEAN_MOTION":12.62264455,"ECCENTRICITY":0.00008724,"INCLINATION":52.0128,"RA_OF_ASC_NODE":93.1334,"ARG_OF_PERICENTER":49.4363,"MEAN_ANOMALY":89.4416,"EPHEMERIS_TYPE":0,"NORAD_CAT_ID":37742,"ELEMENT_SET_NO":999,"REV_AT_EPOCH":69394,"BSTAR":0.000083578628,"MEAN_MOTION_DOT":-8.9e-7,"MEAN_MOTION_DDOT":0},{"OBJECT_NAME":"GLOBALSTAR M081","OBJECT_ID":"2011-033E","EPOCH":"2026-07-20T02:16:31.563264","CLASSIFICATION_TYPE":"U","MEAN_MOTION":12.62265367,"ECCENTRICITY":0.00007523,"INCLINATION":51.996,"RA_OF_ASC_NODE":95.4494,"ARG_OF_PERICENTER":61.8591,"MEAN_ANOMALY":80.179,"EPHEMERIS_TYPE":0,"NORAD_CAT_ID":37743,"ELEMENT_SET_NO":999,"REV_AT_EPOCH":69409,"BSTAR":0.000073001295,"MEAN_MOTION_DOT":-9.1e-7,"MEAN_MOTION_DDOT":0},{"OBJECT_NAME":"GLOBALSTAR M089","OBJECT_ID":"2011-033F","EPOCH":"2026-07-20T01:26:41.215200","CLASSIFICATION_TYPE":"U","MEAN_MOTION":12.62267629,"ECCENTRICITY":0.00007248,"INCLINATION":51.9941,"RA_OF_ASC_NODE":49.707,"ARG_OF_PERICENTER":95.1052,"MEAN_ANOMALY":70.7259,"EPHEMERIS_TYPE":0,"NORAD_CAT_ID":37744,"ELEMENT_SET_NO":999,"REV_AT_EPOCH":69493,"BSTAR":-0.000005693795,"MEAN_MOTION_DOT":-0.00000105,"MEAN_MOTION_DDOT":0},{"OBJECT_NAME":"GLOBALSTAR M084","OBJECT_ID":"2011-080A","EPOCH":"2026-07-20T04:46:59.666880","CLASSIFICATION_TYPE":"U","MEAN_MOTION":12.62263698,"ECCENTRICITY":0.00007183,"INCLINATION":52.0011,"RA_OF_ASC_NODE":276.7843,"ARG_OF_PERICENTER":138.8712,"MEAN_ANOMALY":239.1082,"EPHEMERIS_TYPE":0,"NORAD_CAT_ID":38040,"ELEMENT_SET_NO":999,"REV_AT_EPOCH":67293,"BSTAR":0.000085879219,"MEAN_MOTION_DOT":-8.8e-7,"MEAN_MOTION_DDOT":0}]}
